{"type":"FeatureCollection","features":[{"type":"Feature","properties":{"kawasan":"bpb","name":"Koridor Bandar Putra \u2013 Berenjut"},"geometry":{"type":"MultiLineString","coordinates":[[[103.408415,4.192892],[103.40812,4.193874]],[[103.408813,4.191494],[103.408415,4.192892]],[[103.40911,4.190452],[103.408813,4.191494]],[[103.409183,4.190234],[103.40911,4.190452]],[[103.409183,4.190234],[103.409308,4.189961]],[[103.409308,4.189961],[103.409385,4.189836]],[[103.409385,4.189836],[103.409477,4.189706]],[[103.409477,4.189706],[103.409585,4.189579]],[[103.409585,4.189579],[103.409738,4.18943]],[[103.409738,4.18943],[103.409907,4.18929]],[[103.409907,4.18929],[103.410108,4.189146]],[[103.410108,4.189146],[103.410871,4.188593]],[[103.410871,4.188593],[103.41123,4.188339]],[[103.41123,4.188339],[103.4123,4.187579]],[[103.4123,4.187579],[103.412722,4.187245]],[[103.412722,4.187245],[103.413022,4.187004]],[[103.413022,4.187004],[103.41346,4.186674]],[[103.41346,4.186674],[103.414204,4.186085]],[[103.414204,4.186085],[103.415088,4.185415]],[[103.415432,4.185134],[103.415088,4.185415]],[[103.41573,4.184951],[103.415432,4.185134]],[[103.415958,4.184825],[103.41573,4.184951]],[[103.416176,4.184729],[103.415958,4.184825]],[[103.41641,4.184646],[103.416176,4.184729]],[[103.416544,4.184621],[103.41641,4.184646]],[[103.416739,4.18459],[103.416544,4.184621]],[[103.416961,4.184589],[103.416739,4.18459]],[[103.417178,4.184588],[103.416961,4.184589]],[[103.417514,4.184617],[103.417178,4.184588]],[[103.417961,4.184673],[103.417514,4.184617]],[[103.418163,4.184702],[103.417961,4.184673]],[[103.418464,4.184734],[103.418163,4.184702]],[[103.418689,4.184766],[103.418464,4.184734]],[[103.419057,4.184818],[103.418689,4.184766]],[[103.419461,4.184876],[103.419057,4.184818]],[[103.419648,4.184903],[103.419461,4.184876]],[[103.419919,4.184942],[103.419648,4.184903]],[[103.420231,4.18498],[103.419919,4.184942]],[[103.420601,4.185026],[103.420231,4.18498]],[[103.42115,4.185102],[103.420601,4.185026]],[[103.421771,4.185181],[103.42115,4.185102]],[[103.423023,4.185353],[103.421771,4.185181]],[[103.423308,4.185389],[103.423023,4.185353]],[[103.423756,4.185444],[103.423308,4.185389]],[[103.423837,4.185454],[103.423756,4.185444]],[[103.424031,4.185477],[103.423837,4.185454]],[[103.424319,4.185509],[103.424031,4.185477]],[[103.424849,4.185567],[103.424319,4.185509]],[[103.425049,4.185589],[103.424849,4.185567]],[[103.425571,4.185658],[103.425049,4.185589]],[[103.425742,4.185681],[103.425571,4.185658]],[[103.425827,4.185692],[103.425742,4.185681]],[[103.426044,4.185728],[103.425827,4.185692]],[[103.42613,4.185745],[103.426044,4.185728]],[[103.426334,4.185784],[103.42613,4.185745]],[[103.426354,4.185788],[103.426334,4.185784]],[[103.42657,4.185847],[103.426354,4.185788]],[[103.426709,4.18589],[103.42657,4.185847]],[[103.426875,4.185958],[103.426709,4.18589]],[[103.427118,4.186096],[103.426875,4.185958]],[[103.427527,4.186363],[103.427118,4.186096]],[[103.427905,4.186656],[103.427527,4.186363]],[[103.428289,4.187072],[103.427905,4.186656]],[[103.428846,4.187715],[103.428289,4.187072]],[[103.429247,4.188203],[103.428846,4.187715]]]}},{"type":"Feature","properties":{"kawasan":"bbc","name":"Koridor Binjai \u2013 Bandar Chukai"},"geometry":{"type":"MultiLineString","coordinates":[[[103.394812,4.238123],[103.394554,4.238078]],[[103.394863,4.238119],[103.394812,4.238123]],[[103.394891,4.238281],[103.394971,4.23831]],[[103.394904,4.238104],[103.394863,4.238119]],[[103.39493,4.238202],[103.394554,4.238078]],[[103.394971,4.23831],[103.395181,4.238374]],[[103.395004,4.238225],[103.39493,4.238202]],[[103.395102,4.238197],[103.395083,4.238161]],[[103.395134,4.238224],[103.395102,4.238197]],[[103.395181,4.238374],[103.395996,4.238624]],[[103.395308,4.238537],[103.394852,4.238376]],[[103.395308,4.238537],[103.395315,4.238542]],[[103.395315,4.238542],[103.395322,4.238548]],[[103.395322,4.238548],[103.395325,4.238553]],[[103.395347,4.238323],[103.395004,4.238225]],[[103.395347,4.238323],[103.395134,4.238224]],[[103.395996,4.238624],[103.396496,4.23879]],[[103.396496,4.23879],[103.396621,4.238831]],[[103.396621,4.238831],[103.397472,4.239083]],[[103.396654,4.238729],[103.395347,4.238323]],[[103.397472,4.239083],[103.397627,4.239129]],[[103.397531,4.238992],[103.396654,4.238729]],[[103.397627,4.239129],[103.398323,4.239364]],[[103.398058,4.239165],[103.397531,4.238992]],[[103.398323,4.239364],[103.398511,4.23942]],[[103.398511,4.23942],[103.398636,4.239458]],[[103.398612,4.239332],[103.398058,4.239165]],[[103.398636,4.239458],[103.398943,4.239555]],[[103.398943,4.239555],[103.399514,4.239736]],[[103.398945,4.239439],[103.398612,4.239332]],[[103.399492,4.239618],[103.398945,4.239439]],[[103.399514,4.239736],[103.399944,4.23988]],[[103.399847,4.239729],[103.399492,4.239618]],[[103.399944,4.23988],[103.400162,4.239919]],[[103.399944,4.23988],[103.400326,4.240008]],[[103.400162,4.239919],[103.400496,4.240026]],[[103.400326,4.240008],[103.400364,4.24002]],[[103.400364,4.24002],[103.400908,4.240193]],[[103.40037,4.239894],[103.399847,4.239729]],[[103.400452,4.239932],[103.40037,4.239894]],[[103.400496,4.240026],[103.400537,4.240023]],[[103.400521,4.23997],[103.400452,4.239932]],[[103.400544,4.239996],[103.400521,4.23997]],[[103.400908,4.240193],[103.401092,4.240238]],[[103.401031,4.24012],[103.400452,4.239932]],[[103.401092,4.240238],[103.401185,4.240404]],[[103.401092,4.240238],[103.40129,4.240286]],[[103.401185,4.240404],[103.401933,4.240542]],[[103.40129,4.240286],[103.401954,4.240417]],[[103.401299,4.240198],[103.401031,4.24012]],[[103.401693,4.240103],[103.401097,4.239994]],[[103.401954,4.240417],[103.402498,4.240517]],[[103.402498,4.240517],[103.403013,4.240613]],[[103.402817,4.240461],[103.401299,4.240198]],[[103.403013,4.240613],[103.403395,4.240661]],[[103.403395,4.240661],[103.40375,4.240676]],[[103.403487,4.240561],[103.402817,4.240461]],[[103.40375,4.240676],[103.404076,4.240631]],[[103.403759,4.240574],[103.403487,4.240561]],[[103.404058,4.24053],[103.403759,4.240574]],[[103.404076,4.240631],[103.404216,4.241035]],[[103.404076,4.240631],[103.404219,4.240596]],[[103.404216,4.241035],[103.40432,4.241344]],[[103.404219,4.240596],[103.404348,4.240589]],[[103.404219,4.240596],[103.404445,4.240527]],[[103.40432,4.241344],[103.404511,4.241905]],[[103.404348,4.240589],[103.404469,4.240583]],[[103.404445,4.240527],[103.4046,4.24048]],[[103.404469,4.240583],[103.404528,4.2406]],[[103.404511,4.241905],[103.404606,4.242185]],[[103.40457,4.240393],[103.404058,4.24053]],[[103.4046,4.24048],[103.404911,4.240368]],[[103.404606,4.242185],[103.404697,4.242451]],[[103.40466,4.24036],[103.40457,4.240393]],[[103.404713,4.240527],[103.404733,4.240504]],[[103.404733,4.240504],[103.404911,4.240368]],[[103.404911,4.240368],[103.40532,4.240241]],[[103.405147,4.240178],[103.40466,4.24036]],[[103.405233,4.242298],[103.404717,4.240815]],[[103.40532,4.240241],[103.406175,4.239947]],[[103.405463,4.240074],[103.405147,4.240178]],[[103.405576,4.242871],[103.405233,4.242298]],[[103.405619,4.240022],[103.405463,4.240074]],[[103.40568,4.24306],[103.405576,4.242871]],[[103.405738,4.243201],[103.40568,4.24306]],[[103.406033,4.243908],[103.405738,4.243201]],[[103.406175,4.239947],[103.407008,4.239676]],[[103.406203,4.244284],[103.406033,4.243908]],[[103.406218,4.239828],[103.405619,4.240022]],[[103.406313,4.244524],[103.406203,4.244284]],[[103.406445,4.24484],[103.406313,4.244524]],[[103.406554,4.239719],[103.406218,4.239828]],[[103.406595,4.245184],[103.406445,4.24484]],[[103.406671,4.239681],[103.406554,4.239719]],[[103.406722,4.245485],[103.406595,4.245184]],[[103.40681,4.246091],[103.406913,4.246341]],[[103.406957,4.246022],[103.406722,4.245485]],[[103.406974,4.239583],[103.406671,4.239681]],[[103.407008,4.239676],[103.40747,4.239509]],[[103.407104,4.246328],[103.406957,4.246022]],[[103.407257,4.246696],[103.407104,4.246328]],[[103.407455,4.239426],[103.406974,4.239583]],[[103.40747,4.239509],[103.407982,4.239346]],[[103.407575,4.247398],[103.407257,4.246696]],[[103.407674,4.239354],[103.407455,4.239426]],[[103.407697,4.247669],[103.407575,4.247398]],[[103.407882,4.248078],[103.407697,4.247669]],[[103.407906,4.248134],[103.407882,4.248078]],[[103.407982,4.239346],[103.408182,4.239274]],[[103.408046,4.248464],[103.407906,4.248134]],[[103.408086,4.248554],[103.408046,4.248464]],[[103.408122,4.239206],[103.407674,4.239354]],[[103.408162,4.248717],[103.408086,4.248554]],[[103.408182,4.239274],[103.409255,4.238938]],[[103.408198,4.248807],[103.408162,4.248717]],[[103.408379,4.249238],[103.408198,4.248807]],[[103.408515,4.239076],[103.408122,4.239206]],[[103.408516,4.249562],[103.408379,4.249238]],[[103.408523,4.249586],[103.408516,4.249562]],[[103.408566,4.249834],[103.408523,4.249586]],[[103.40858,4.249986],[103.408566,4.249834]],[[103.408771,4.238995],[103.408515,4.239076]],[[103.409111,4.238885],[103.408771,4.238995]],[[103.409255,4.238938],[103.410027,4.238663]],[[103.409656,4.238702],[103.409111,4.238885]],[[103.410027,4.238663],[103.411218,4.238272]],[[103.410728,4.238346],[103.409656,4.238702]],[[103.41106,4.238235],[103.410728,4.238346]],[[103.411218,4.238272],[103.411586,4.238142]],[[103.411354,4.238134],[103.41106,4.238235]],[[103.411586,4.238142],[103.412223,4.237944]],[[103.411699,4.238016],[103.411354,4.238134]],[[103.411745,4.238],[103.411699,4.238016]],[[103.41218,4.237833],[103.411745,4.238]],[[103.412223,4.237944],[103.412837,4.237744]],[[103.412771,4.23765],[103.41218,4.237833]],[[103.412837,4.237744],[103.412961,4.237673]],[[103.412837,4.237744],[103.413381,4.23758]],[[103.412961,4.237673],[103.413259,4.237578]],[[103.413004,4.237797],[103.413011,4.237788]],[[103.413011,4.237788],[103.413022,4.237785]],[[103.413022,4.237785],[103.413196,4.237727]],[[103.413196,4.237727],[103.413404,4.237666]],[[103.413259,4.237578],[103.413282,4.237549]],[[103.41327,4.237516],[103.412771,4.23765]],[[103.413381,4.23758],[103.413868,4.237442]],[[103.413868,4.237442],[103.413943,4.23742]],[[103.413869,4.237318],[103.41327,4.237516]],[[103.413902,4.237362],[103.413892,4.23738]],[[103.413908,4.237411],[103.413943,4.23742]],[[103.413918,4.237351],[103.413902,4.237362]],[[103.413943,4.23742],[103.414253,4.237324]],[[103.414109,4.237238],[103.413869,4.237318]],[[103.414253,4.237324],[103.414476,4.237251]],[[103.414476,4.237251],[103.414667,4.237186]],[[103.414543,4.237095],[103.413918,4.237351]],[[103.414543,4.237095],[103.414109,4.237238]],[[103.414667,4.237186],[103.41485,4.237129]],[[103.41485,4.237129],[103.415004,4.237077]],[[103.414944,4.236977],[103.414543,4.237095]],[[103.415004,4.237077],[103.415296,4.236982]],[[103.415296,4.236982],[103.415776,4.236846]],[[103.415469,4.236815],[103.414944,4.236977]],[[103.415776,4.236846],[103.416157,4.236733]],[[103.415862,4.236693],[103.415469,4.236815]],[[103.416157,4.236733],[103.416603,4.236599]],[[103.416559,4.236484],[103.415862,4.236693]],[[103.416603,4.236599],[103.416676,4.236578]],[[103.416639,4.236461],[103.416559,4.236484]],[[103.416676,4.236578],[103.417101,4.236451]],[[103.417101,4.236451],[103.417223,4.236414]],[[103.417223,4.236414],[103.417271,4.236417]],[[103.417223,4.236414],[103.41766,4.236293]],[[103.417271,4.236417],[103.417318,4.236429]],[[103.417318,4.236429],[103.417362,4.236449]],[[103.417525,4.236387],[103.41757,4.236342]],[[103.41757,4.236342],[103.41766,4.236293]],[[103.41766,4.236293],[103.419028,4.23589]],[[103.417781,4.236152],[103.416639,4.236461]],[[103.418603,4.235912],[103.417781,4.236152]],[[103.419028,4.23589],[103.419246,4.235824]],[[103.419068,4.235791],[103.418603,4.235912]],[[103.419246,4.235824],[103.419764,4.235651]],[[103.419298,4.235721],[103.419068,4.235791]],[[103.419355,4.220607],[103.419417,4.220654]],[[103.419417,4.220654],[103.419498,4.220733]],[[103.419478,4.221364],[103.41949,4.221842]],[[103.41949,4.221842],[103.419522,4.222324]],[[103.419491,4.220813],[103.419478,4.221364]],[[103.419498,4.220733],[103.419491,4.220813]],[[103.419514,4.220441],[103.419498,4.220733]],[[103.419521,4.235645],[103.419298,4.235721]],[[103.419522,4.222324],[103.419547,4.222645]],[[103.419523,4.220703],[103.419498,4.220733]],[[103.419547,4.222645],[103.419593,4.223182]],[[103.419565,4.220336],[103.419497,4.220355]],[[103.419584,4.220335],[103.419565,4.220336]],[[103.419593,4.223182],[103.419641,4.223891]],[[103.419599,4.221662],[103.419612,4.221047]],[[103.419603,4.220421],[103.420299,4.220217]],[[103.419608,4.220727],[103.419585,4.2207]],[[103.419608,4.220727],[103.419603,4.220421]],[[103.419612,4.221047],[103.419608,4.220727]],[[103.419612,4.221047],[103.419667,4.220896]],[[103.419614,4.22201],[103.419599,4.221662]],[[103.419638,4.222405],[103.419614,4.22201]],[[103.419639,4.220236],[103.419608,4.220275]],[[103.419641,4.223891],[103.419651,4.224056]],[[103.419651,4.224056],[103.41967,4.224289]],[[103.419667,4.220896],[103.419749,4.220748]],[[103.41967,4.224289],[103.419692,4.224567]],[[103.419676,4.223026],[103.419638,4.222405]],[[103.41969,4.220211],[103.419639,4.220236]],[[103.419692,4.224567],[103.419743,4.225141]],[[103.419722,4.22389],[103.419676,4.223026]],[[103.419743,4.225141],[103.419779,4.225572]],[[103.419743,4.235554],[103.419521,4.235645]],[[103.419749,4.220748],[103.419815,4.220655]],[[103.419764,4.235651],[103.420622,4.235266]],[[103.419779,4.225572],[103.419837,4.226257]],[[103.419789,4.226426],[103.419723,4.226505]],[[103.419795,4.224637],[103.419722,4.22389]],[[103.419815,4.226362],[103.419789,4.226426]],[[103.419815,4.220655],[103.419997,4.220466]],[[103.419837,4.226257],[103.419815,4.226362]],[[103.419837,4.226257],[103.41987,4.226527]],[[103.419865,4.225455],[103.419795,4.224637]],[[103.41987,4.226527],[103.419878,4.226597]],[[103.419878,4.226597],[103.420109,4.228689]],[[103.419915,4.224629],[103.419757,4.223026]],[[103.419924,4.226057],[103.419865,4.225455]],[[103.419927,4.226177],[103.419924,4.226057]],[[103.419929,4.226237],[103.419927,4.226177]],[[103.419932,4.226559],[103.419947,4.226524]],[[103.419947,4.226524],[103.419951,4.22648]],[[103.419951,4.22648],[103.419929,4.226237]],[[103.419954,4.226591],[103.419932,4.226559]],[[103.419966,4.226629],[103.419954,4.226591]],[[103.41999,4.225409],[103.419915,4.224629]],[[103.419997,4.220466],[103.420299,4.220217]],[[103.419999,4.226571],[103.419924,4.226057]],[[103.420024,4.227093],[103.419966,4.226629]],[[103.420038,4.227169],[103.420024,4.227093]],[[103.420051,4.227069],[103.419999,4.226571]],[[103.420054,4.226042],[103.41999,4.225409]],[[103.420054,4.226042],[103.420119,4.226684]],[[103.420068,4.227239],[103.420038,4.227169]],[[103.420068,4.227239],[103.420051,4.227069]],[[103.420093,4.220084],[103.41969,4.220211]],[[103.420093,4.227504],[103.420068,4.227239]],[[103.420109,4.228689],[103.420181,4.229247]],[[103.420119,4.226684],[103.420132,4.226717]],[[103.420128,4.220069],[103.420093,4.220084]],[[103.420163,4.220043],[103.420128,4.220069]],[[103.42017,4.228303],[103.420093,4.227504]],[[103.420181,4.229247],[103.420308,4.229549]],[[103.420189,4.220015],[103.420163,4.220043]],[[103.420206,4.228696],[103.42017,4.228303]],[[103.420231,4.220041],[103.420189,4.220015]],[[103.420278,4.22923],[103.420206,4.228696]],[[103.420278,4.220062],[103.420231,4.220041]],[[103.420299,4.220217],[103.420573,4.220145]],[[103.420308,4.229549],[103.420477,4.229933]],[[103.420333,4.220078],[103.420278,4.220062]],[[103.420396,4.229512],[103.420278,4.22923]],[[103.420418,4.220097],[103.419584,4.220335]],[[103.420418,4.220097],[103.420333,4.220078]],[[103.420477,4.229933],[103.420569,4.230118]],[[103.420563,4.220057],[103.420418,4.220097]],[[103.420569,4.230118],[103.42058,4.230141]],[[103.420573,4.220145],[103.421082,4.220003]],[[103.42058,4.230141],[103.420775,4.23046]],[[103.420595,4.235182],[103.419743,4.235554]],[[103.420622,4.235266],[103.420773,4.235222]],[[103.420622,4.235266],[103.421247,4.234972]],[[103.420652,4.230005],[103.420396,4.229512]],[[103.420751,4.230195],[103.420652,4.230005]],[[103.420773,4.235222],[103.421001,4.235155]],[[103.420775,4.23046],[103.420942,4.230743]],[[103.420867,4.219836],[103.420189,4.220015]],[[103.420868,4.219976],[103.420563,4.220057]],[[103.420893,4.235037],[103.420595,4.235182]],[[103.420926,4.219836],[103.420867,4.219836]],[[103.420942,4.230743],[103.421083,4.231021]],[[103.420985,4.219859],[103.420926,4.219836]],[[103.421001,4.235155],[103.421059,4.23516]],[[103.421034,4.230728],[103.420751,4.230195]],[[103.421055,4.219924],[103.420868,4.219976]],[[103.421059,4.23516],[103.421124,4.235187]],[[103.421077,4.234839],[103.420893,4.235037]],[[103.421082,4.220003],[103.421881,4.219786]],[[103.421083,4.231021],[103.421153,4.231189]],[[103.421109,4.220114],[103.421342,4.22004]],[[103.421125,4.234776],[103.421077,4.234839]],[[103.421153,4.231189],[103.421197,4.231298]],[[103.421168,4.234681],[103.421125,4.234776]],[[103.421197,4.231298],[103.421245,4.231592]],[[103.421219,4.231086],[103.421034,4.230728]],[[103.421234,4.234869],[103.420893,4.235037]],[[103.421236,4.234429],[103.421168,4.234681]],[[103.421236,4.234429],[103.421234,4.234869]],[[103.421245,4.231592],[103.421274,4.231804]],[[103.421247,4.234972],[103.421333,4.234926]],[[103.421274,4.231804],[103.421303,4.23218]],[[103.421279,4.231117],[103.421219,4.231086]],[[103.421279,4.23399],[103.421236,4.234429]],[[103.421303,4.23218],[103.421339,4.232649]],[[103.42131,4.231262],[103.421219,4.231086]],[[103.421316,4.233382],[103.421279,4.23399]],[[103.421324,4.233252],[103.421316,4.233382]],[[103.421329,4.233063],[103.421324,4.233252]],[[103.421333,4.234926],[103.42166,4.234732]],[[103.421338,4.232819],[103.421329,4.233063]],[[103.421339,4.232649],[103.421338,4.232819]],[[103.421341,4.234822],[103.421346,4.234432]],[[103.421342,4.22004],[103.421369,4.22004]],[[103.421346,4.234432],[103.421425,4.233701]],[[103.421381,4.231918],[103.42131,4.231262]],[[103.421386,4.234497],[103.421346,4.234432]],[[103.421393,4.231175],[103.421279,4.231117]],[[103.421422,4.234548],[103.421386,4.234497]],[[103.421425,4.233701],[103.421449,4.232645]],[[103.421432,4.235089],[103.421459,4.234989]],[[103.421442,4.232552],[103.421381,4.231918]],[[103.421449,4.232645],[103.421442,4.232552]],[[103.421459,4.234989],[103.421521,4.23489]],[[103.42146,4.219799],[103.421055,4.219924]],[[103.421465,4.234584],[103.421422,4.234548]],[[103.42152,4.231208],[103.421393,4.231175]],[[103.421521,4.23489],[103.42166,4.234732]],[[103.421522,4.234606],[103.421465,4.234584]],[[103.421572,4.234606],[103.421522,4.234606]],[[103.421614,4.234596],[103.421572,4.234606]],[[103.42166,4.234732],[103.422243,4.234423]],[[103.421881,4.219786],[103.422291,4.219666]],[[103.421888,4.234528],[103.421341,4.234822]],[[103.421888,4.234528],[103.421614,4.234596]],[[103.421897,4.219692],[103.42146,4.219799]],[[103.422082,4.219635],[103.421897,4.219692]],[[103.422208,4.219593],[103.422082,4.219635]],[[103.422227,4.234347],[103.421888,4.234528]],[[103.422227,4.234347],[103.422382,4.234263]],[[103.422243,4.234423],[103.422382,4.234263]],[[103.422243,4.234423],[103.422481,4.234289]],[[103.422291,4.219666],[103.423006,4.219379]],[[103.422382,4.234263],[103.422765,4.234055]],[[103.422394,4.21953],[103.422208,4.219593]],[[103.422481,4.234289],[103.422529,4.234262]],[[103.422529,4.234262],[103.422717,4.234155]],[[103.422685,4.219414],[103.422394,4.21953]],[[103.422717,4.234155],[103.422901,4.234051]],[[103.422765,4.234055],[103.422901,4.234051]],[[103.422765,4.234055],[103.423003,4.233925]],[[103.422901,4.234051],[103.42293,4.234035]],[[103.42293,4.234035],[103.42295,4.234025]],[[103.422931,4.219293],[103.422685,4.219414]],[[103.42295,4.234025],[103.423003,4.233925]],[[103.42295,4.234025],[103.42362,4.233676]],[[103.423003,4.233925],[103.423191,4.233824]],[[103.423006,4.219379],[103.423119,4.219309]],[[103.423006,4.219379],[103.423141,4.219349]],[[103.423119,4.219309],[103.423296,4.219206]],[[103.423141,4.219349],[103.42332,4.219318]],[[103.423191,4.233824],[103.423603,4.2336]],[[103.423256,4.219111],[103.422931,4.219293]],[[103.423296,4.219206],[103.423598,4.218998]],[[103.42332,4.219318],[103.423547,4.219305]],[[103.423388,4.219038],[103.423256,4.219111]],[[103.423411,4.218962],[103.423388,4.219038]],[[103.423539,4.21894],[103.423388,4.219038]],[[103.423595,4.218902],[103.423539,4.21894]],[[103.423598,4.218998],[103.423657,4.218955]],[[103.423598,4.218998],[103.423898,4.21933]],[[103.423603,4.2336],[103.423788,4.233499]],[[103.42362,4.233676],[103.423724,4.233621]],[[103.423657,4.218955],[103.423595,4.218902]],[[103.423705,4.219008],[103.423657,4.218955]],[[103.423724,4.233621],[103.423788,4.233499]],[[103.423724,4.233621],[103.424026,4.233457]],[[103.42376,4.219296],[103.423833,4.219296]],[[103.423788,4.233499],[103.423873,4.233453]],[[103.423833,4.219296],[103.423898,4.21933]],[[103.423873,4.233453],[103.424026,4.233457]],[[103.423873,4.233453],[103.424231,4.233259]],[[103.423898,4.21933],[103.423983,4.219425]],[[103.423901,4.219223],[103.423705,4.219008]],[[103.423901,4.219223],[103.423905,4.21911]],[[103.423905,4.21911],[103.423916,4.219011]],[[103.423983,4.219425],[103.423992,4.219436]],[[103.423992,4.219436],[103.424048,4.219494]],[[103.424026,4.233457],[103.424236,4.233349]],[[103.424044,4.219388],[103.423901,4.219223]],[[103.424048,4.219494],[103.424126,4.219579]],[[103.424126,4.219579],[103.424358,4.219862]],[[103.424164,4.219526],[103.424044,4.219388]],[[103.424231,4.233259],[103.424672,4.233059]],[[103.424236,4.233349],[103.424264,4.233337]],[[103.424264,4.233337],[103.424724,4.233113]],[[103.424358,4.219862],[103.424765,4.220307]],[[103.424672,4.233059],[103.424689,4.233051]],[[103.424689,4.233051],[103.424825,4.232989]],[[103.424724,4.233113],[103.425,4.232997]],[[103.424765,4.220307],[103.425518,4.221194]],[[103.424811,4.220269],[103.424164,4.219526]],[[103.424825,4.232989],[103.425023,4.2329]],[[103.425,4.232997],[103.425223,4.232902]],[[103.425023,4.2329],[103.425205,4.232817]],[[103.425205,4.232817],[103.425314,4.232769]],[[103.425223,4.232902],[103.425235,4.232896]],[[103.425235,4.232896],[103.425314,4.232769]],[[103.425235,4.232896],[103.425572,4.232743]],[[103.425268,4.220812],[103.424811,4.220269]],[[103.425314,4.232769],[103.425383,4.232733]],[[103.425383,4.232733],[103.425572,4.232743]],[[103.425383,4.232733],[103.42572,4.232582]],[[103.425518,4.221194],[103.425765,4.221497]],[[103.425572,4.232743],[103.42575,4.232663]],[[103.42572,4.232582],[103.425757,4.232565]],[[103.42575,4.232663],[103.425788,4.232648]],[[103.425757,4.232565],[103.426476,4.232261]],[[103.425765,4.221497],[103.425952,4.221753]],[[103.425788,4.232648],[103.426019,4.232541]],[[103.425952,4.221753],[103.426009,4.221855]],[[103.426009,4.221855],[103.426056,4.221926]],[[103.426019,4.232541],[103.426634,4.232271]],[[103.426023,4.221711],[103.425268,4.220812]],[[103.426056,4.221926],[103.426112,4.222021]],[[103.42609,4.221806],[103.426023,4.221711]],[[103.426112,4.222021],[103.426165,4.222157]],[[103.426161,4.221948],[103.42609,4.221806]],[[103.426165,4.222157],[103.426224,4.222292]],[[103.426224,4.222292],[103.426311,4.22253]],[[103.426311,4.22253],[103.426439,4.223017]],[[103.426312,4.222274],[103.426161,4.221948]],[[103.426378,4.222512],[103.426312,4.222274]],[[103.426425,4.222681],[103.426378,4.222512]],[[103.426439,4.223017],[103.426565,4.223502]],[[103.426476,4.232261],[103.426634,4.232271]],[[103.426476,4.232261],[103.427089,4.232]],[[103.426515,4.222999],[103.426425,4.222681]],[[103.426533,4.223068],[103.426515,4.222999]],[[103.426565,4.223502],[103.426656,4.223686]],[[103.426634,4.232271],[103.427077,4.232077]],[[103.426644,4.223426],[103.426533,4.223068]],[[103.426656,4.223686],[103.426644,4.223426]],[[103.427076,4.224969],[103.426656,4.223686]],[[103.427077,4.232077],[103.427728,4.231794]],[[103.427089,4.232],[103.427788,4.231699]],[[103.42713,4.22512],[103.427076,4.224969]],[[103.427291,4.225571],[103.42713,4.22512]],[[103.427463,4.226078],[103.427291,4.225571]],[[103.427534,4.226291],[103.427463,4.226078]],[[103.427571,4.226386],[103.427534,4.226291]],[[103.427728,4.231794],[103.427812,4.23175]],[[103.427788,4.231699],[103.428155,4.231567]],[[103.427812,4.23175],[103.428155,4.231567]],[[103.427835,4.227055],[103.427571,4.226386]],[[103.428094,4.227832],[103.427835,4.227055]],[[103.428141,4.227986],[103.428094,4.227832]],[[103.428155,4.228033],[103.428141,4.227986]],[[103.428155,4.231567],[103.428349,4.231495]],[[103.428245,4.228296],[103.428155,4.228033]],[[103.428245,4.228296],[103.428249,4.228414]],[[103.428249,4.228414],[103.428283,4.228591]],[[103.428283,4.228591],[103.428396,4.229189]],[[103.428293,4.228409],[103.428245,4.228296]],[[103.428334,4.228579],[103.428293,4.228409]],[[103.428349,4.231495],[103.428563,4.231393]],[[103.428396,4.229189],[103.42842,4.229292]],[[103.42842,4.229292],[103.428461,4.2295]],[[103.428432,4.229628],[103.428401,4.229678]],[[103.428447,4.229189],[103.428334,4.228579]],[[103.428449,4.229599],[103.428432,4.229628]],[[103.428455,4.22957],[103.428449,4.229599]],[[103.428461,4.2295],[103.428461,4.229535]],[[103.428461,4.229535],[103.428455,4.22957]],[[103.428467,4.229286],[103.428447,4.229189]],[[103.42847,4.229755],[103.428447,4.229739]],[[103.428506,4.229778],[103.42847,4.229755]],[[103.428532,4.229806],[103.428506,4.229778]],[[103.428551,4.229635],[103.428467,4.229286]],[[103.428563,4.231393],[103.428625,4.231359]],[[103.428625,4.231359],[103.428711,4.231287]],[[103.428626,4.229989],[103.428532,4.229806]],[[103.428626,4.229989],[103.428551,4.229635]],[[103.428648,4.230085],[103.428626,4.229989]],[[103.428711,4.231287],[103.428786,4.231183]],[[103.428772,4.230612],[103.428648,4.230085]],[[103.428786,4.231183],[103.428816,4.231082]],[[103.428816,4.231082],[103.428833,4.23098]],[[103.428821,4.230826],[103.428772,4.230612]],[[103.428833,4.23098],[103.428821,4.230826]]]}}]}