{"type":"FeatureCollection","features":[{"type":"Feature","geometry":{"type":"Polygon","coordinates":[[[103.446077,4.304765],[103.449706,4.302185],[103.452331,4.302358],[103.454328,4.304087],[103.455769,4.305339],[103.457313,4.305183],[103.456227,4.297394],[103.457386,4.295897],[103.457508,4.292508],[103.457901,4.290966],[103.45804,4.289384],[103.459216,4.289377],[103.458099,4.286267],[103.46125,4.284181],[103.46372,4.283489],[103.466218,4.283702],[103.465522,4.281397],[103.465334,4.279279],[103.46554,4.27769],[103.46662,4.273412],[103.46746,4.271173],[103.467566,4.269403],[103.468051,4.265696],[103.470993,4.258864],[103.472103,4.256146],[103.470814,4.24954],[103.46837,4.24993],[103.470083,4.256713],[103.465496,4.256956],[103.465276,4.256816],[103.464327,4.256762],[103.463266,4.256562],[103.460988,4.254317],[103.459862,4.246696],[103.459611,4.23945],[103.457194,4.239471],[103.45729,4.245162],[103.457885,4.24657],[103.458081,4.251068],[103.455239,4.24726],[103.452894,4.252042],[103.451713,4.253893],[103.450918,4.254148],[103.450959,4.255636],[103.447574,4.257119],[103.447513,4.257643],[103.446867,4.257978],[103.446172,4.257522],[103.444477,4.259253],[103.446207,4.260934],[103.448211,4.262381],[103.451949,4.259202],[103.45876,4.260258],[103.45812,4.26176],[103.456531,4.262766],[103.453087,4.264444],[103.451899,4.265584],[103.451554,4.270518],[103.434976,4.270225],[103.435479,4.279642],[103.435336,4.287458],[103.436622,4.29378],[103.438973,4.296788],[103.443336,4.301666],[103.446077,4.304765]]]},"properties":{"name":"Sempadan Perindustrian Teluk Kalong / Chukai"}}]}