{"type":"FeatureCollection","features":[{"type":"Feature","properties":{"id":1},"geometry":{"type":"Polygon","coordinates":[[[103.441059,4.300839],[103.440633,4.300925],[103.439951,4.30084],[103.439313,4.30097],[103.439242,4.304487],[103.439371,4.304787],[103.439627,4.304872],[103.440394,4.304871],[103.440479,4.304786],[103.441417,4.30487],[103.441629,4.30457],[103.441534,4.302426],[103.441614,4.301225],[103.441485,4.300924],[103.441059,4.300839]]]}},{"type":"Feature","properties":{"id":2},"geometry":{"type":"Polygon","coordinates":[[[103.442763,4.300837],[103.441911,4.300924],[103.441699,4.301053],[103.441714,4.304656],[103.442099,4.30487],[103.443462,4.304782],[103.444565,4.303838],[103.444862,4.303451],[103.44486,4.303108],[103.443576,4.301737],[103.44349,4.30148],[103.442763,4.300837]]]}},{"type":"Feature","properties":{"id":3},"geometry":{"type":"Polygon","coordinates":[[[103.430713,4.292616],[103.426922,4.292748],[103.427015,4.304543],[103.431105,4.304538],[103.431317,4.304409],[103.431315,4.303809],[103.431229,4.303723],[103.431314,4.303552],[103.431268,4.29283],[103.431139,4.292701],[103.430713,4.292616]]]}},{"type":"Feature","properties":{"id":4},"geometry":{"type":"Polygon","coordinates":[[[103.434036,4.292612],[103.433525,4.292613],[103.43344,4.292699],[103.433355,4.292613],[103.432247,4.292614],[103.432162,4.2927],[103.43148,4.292701],[103.431353,4.292829],[103.431355,4.293258],[103.43144,4.293344],[103.431487,4.304238],[103.433064,4.304365],[103.43315,4.30445],[103.435961,4.304447],[103.436047,4.304533],[103.43707,4.304532],[103.43724,4.304446],[103.437325,4.304532],[103.437837,4.304531],[103.438134,4.304316],[103.438099,4.296253],[103.437928,4.296082],[103.437669,4.29531],[103.437499,4.295225],[103.437327,4.294882],[103.436982,4.294024],[103.43664,4.293682],[103.436639,4.293424],[103.436167,4.292781],[103.435997,4.292696],[103.434122,4.292698],[103.434036,4.292612]]]}},{"type":"Feature","properties":{"id":5},"geometry":{"type":"Polygon","coordinates":[[[103.456225,4.300394],[103.455713,4.300395],[103.455628,4.30048],[103.455543,4.300395],[103.454861,4.300396],[103.454734,4.300524],[103.454736,4.300953],[103.454821,4.301039],[103.454652,4.301211],[103.454741,4.30224],[103.454487,4.302583],[103.454488,4.302841],[103.455814,4.303997],[103.456155,4.304168],[103.456922,4.304167],[103.45705,4.304039],[103.45696,4.303095],[103.456702,4.302495],[103.456439,4.300694],[103.456225,4.300394]]]}},{"type":"Feature","properties":{"id":6},"geometry":{"type":"Polygon","coordinates":[[[103.451194,4.299627],[103.449064,4.29963],[103.448808,4.299716],[103.448384,4.300145],[103.448129,4.300231],[103.447875,4.300575],[103.447195,4.30109],[103.446304,4.301992],[103.446222,4.302592],[103.446308,4.302849],[103.446778,4.303235],[103.447119,4.303234],[103.448223,4.30229],[103.448478,4.302204],[103.448902,4.301774],[103.449242,4.301602],[103.449327,4.301431],[103.449582,4.30143],[103.450433,4.301086],[103.4512,4.301086],[103.451326,4.300614],[103.451194,4.299627]]]}},{"type":"Feature","properties":{"id":7},"geometry":{"type":"Polygon","coordinates":[[[103.454268,4.301082],[103.453458,4.301126],[103.453462,4.301898],[103.453847,4.302369],[103.454103,4.302369],[103.454315,4.302155],[103.454396,4.301211],[103.454268,4.301082]]]}},{"type":"Feature","properties":{"id":8},"geometry":{"type":"Polygon","coordinates":[[[103.446084,4.300319],[103.445743,4.300319],[103.445022,4.300964],[103.445023,4.301307],[103.445408,4.301692],[103.446004,4.301606],[103.446471,4.301048],[103.446469,4.300619],[103.446084,4.300319]]]}},{"type":"Feature","properties":{"id":9},"geometry":{"type":"Polygon","coordinates":[[[103.453242,4.300311],[103.452731,4.300312],[103.452519,4.300698],[103.452607,4.301299],[103.452992,4.301598],[103.453247,4.301598],[103.453374,4.301384],[103.453288,4.301041],[103.453371,4.300526],[103.453242,4.300311]]]}},{"type":"Feature","properties":{"id":10},"geometry":{"type":"Polygon","coordinates":[[[103.453838,4.300311],[103.453455,4.300354],[103.453458,4.300955],[103.454267,4.300997],[103.454395,4.300868],[103.454393,4.300525],[103.454265,4.300396],[103.453838,4.300311]]]}},{"type":"Feature","properties":{"id":11},"geometry":{"type":"Polygon","coordinates":[[[103.444804,4.299977],[103.444379,4.300064],[103.444338,4.30045],[103.444638,4.300835],[103.445064,4.300921],[103.445191,4.300792],[103.44519,4.300535],[103.445104,4.300277],[103.444804,4.299977]]]}},{"type":"Feature","properties":{"id":12},"geometry":{"type":"Polygon","coordinates":[[[103.439509,4.296981],[103.439253,4.296981],[103.439126,4.29711],[103.439212,4.297453],[103.439129,4.297882],[103.439139,4.300284],[103.439609,4.300498],[103.442079,4.300409],[103.44212,4.300023],[103.44075,4.298481],[103.440664,4.298223],[103.440151,4.297709],[103.439979,4.297366],[103.439509,4.296981]]]}},{"type":"Feature","properties":{"id":13},"geometry":{"type":"Polygon","coordinates":[[[103.445399,4.299634],[103.444888,4.299634],[103.444761,4.299763],[103.444762,4.30002],[103.445147,4.300492],[103.445403,4.300491],[103.4457,4.300277],[103.445699,4.299934],[103.445399,4.299634]]]}},{"type":"Feature","properties":{"id":14},"geometry":{"type":"Polygon","coordinates":[[[103.446933,4.299632],[103.446465,4.299761],[103.446467,4.300104],[103.446766,4.300404],[103.447192,4.300404],[103.447319,4.300275],[103.447318,4.300018],[103.446933,4.299632]]]}},{"type":"Feature","properties":{"id":15},"geometry":{"type":"Polygon","coordinates":[[[103.453239,4.299711],[103.452728,4.299712],[103.452602,4.300183],[103.452731,4.300312],[103.453157,4.300312],[103.453284,4.300183],[103.453239,4.299711]]]}},{"type":"Feature","properties":{"id":16},"geometry":{"type":"Polygon","coordinates":[[[103.456046,4.298593],[103.454939,4.298594],[103.454726,4.298723],[103.454775,4.300224],[103.455457,4.300223],[103.455627,4.300052],[103.455883,4.300309],[103.456224,4.300308],[103.456351,4.300179],[103.45626,4.298807],[103.456046,4.298593]]]}},{"type":"Feature","properties":{"id":17},"geometry":{"type":"Polygon","coordinates":[[[103.454262,4.29971],[103.453495,4.299711],[103.453454,4.300183],[103.454264,4.300225],[103.454262,4.29971]]]}},{"type":"Feature","properties":{"id":18},"geometry":{"type":"Polygon","coordinates":[[[103.44446,4.299034],[103.444204,4.299034],[103.443737,4.299507],[103.443782,4.299893],[103.444122,4.299892],[103.444589,4.29942],[103.444588,4.299163],[103.44446,4.299034]]]}},{"type":"Feature","properties":{"id":19},"geometry":{"type":"Polygon","coordinates":[[[103.454085,4.298166],[103.452466,4.298254],[103.452428,4.299412],[103.452642,4.29954],[103.454261,4.299538],[103.454387,4.299066],[103.454384,4.298466],[103.454085,4.298166]]]}},{"type":"Feature","properties":{"id":20},"geometry":{"type":"Polygon","coordinates":[[[103.445308,4.29809],[103.444072,4.298134],[103.444073,4.298391],[103.444631,4.299206],[103.444887,4.299291],[103.44544,4.299248],[103.445436,4.298218],[103.445308,4.29809]]]}},{"type":"Feature","properties":{"id":21},"geometry":{"type":"Polygon","coordinates":[[[103.446415,4.298089],[103.445606,4.298132],[103.445654,4.29929],[103.446421,4.299289],[103.446633,4.299075],[103.446546,4.298732],[103.446629,4.298303],[103.446415,4.298089]]]}},{"type":"Feature","properties":{"id":22},"geometry":{"type":"Polygon","coordinates":[[[103.448795,4.296714],[103.448199,4.296714],[103.448114,4.2968],[103.447262,4.296715],[103.446794,4.296844],[103.446709,4.297016],[103.446712,4.297788],[103.446884,4.298045],[103.446715,4.298388],[103.446716,4.298646],[103.446802,4.298731],[103.446803,4.29916],[103.446932,4.299289],[103.448806,4.299287],[103.448934,4.299158],[103.448925,4.297099],[103.448795,4.296714]]]}},{"type":"Feature","properties":{"id":23},"geometry":{"type":"Polygon","coordinates":[[[103.449995,4.298171],[103.449398,4.298171],[103.449186,4.298386],[103.449318,4.299286],[103.45017,4.299285],[103.450382,4.299157],[103.450381,4.298899],[103.45021,4.298728],[103.450208,4.298299],[103.449995,4.298171]]]}},{"type":"Feature","properties":{"id":24},"geometry":{"type":"Polygon","coordinates":[[[103.444202,4.298606],[103.443606,4.298692],[103.443565,4.299164],[103.444034,4.299206],[103.444246,4.298992],[103.444202,4.298606]]]}},{"type":"Feature","properties":{"id":25},"geometry":{"type":"Polygon","coordinates":[[[103.443688,4.298006],[103.443177,4.298092],[103.442796,4.298478],[103.442797,4.298822],[103.443011,4.299036],[103.443352,4.299035],[103.443734,4.298735],[103.443817,4.298134],[103.443688,4.298006]]]}},{"type":"Feature","properties":{"id":26},"geometry":{"type":"Polygon","coordinates":[[[103.451188,4.298255],[103.450762,4.298255],[103.450337,4.298427],[103.450295,4.298728],[103.45119,4.29877],[103.451188,4.298255]]]}},{"type":"Feature","properties":{"id":27},"geometry":{"type":"Polygon","coordinates":[[[103.443346,4.297577],[103.443005,4.297578],[103.442877,4.297706],[103.442922,4.298178],[103.443178,4.298178],[103.443305,4.298049],[103.443389,4.297877],[103.443346,4.297577]]]}},{"type":"Feature","properties":{"id":28},"geometry":{"type":"Polygon","coordinates":[[[103.449906,4.297484],[103.44931,4.297485],[103.449183,4.297614],[103.449184,4.297957],[103.449313,4.298085],[103.450079,4.298085],[103.450207,4.297956],[103.450205,4.297613],[103.449906,4.297484]]]}},{"type":"Feature","properties":{"id":29},"geometry":{"type":"Polygon","coordinates":[[[103.451185,4.297483],[103.450333,4.29757],[103.450292,4.297956],[103.451102,4.298084],[103.451314,4.297869],[103.451313,4.297612],[103.451185,4.297483]]]}},{"type":"Feature","properties":{"id":30},"geometry":{"type":"Polygon","coordinates":[[[103.443003,4.297149],[103.442492,4.297149],[103.442195,4.29745],[103.442111,4.297879],[103.44241,4.297921],[103.443005,4.297663],[103.443003,4.297149]]]}},{"type":"Feature","properties":{"id":31},"geometry":{"type":"Polygon","coordinates":[[[103.444024,4.296719],[103.443512,4.296719],[103.443045,4.296934],[103.443046,4.297192],[103.443773,4.29792],[103.444114,4.297919],[103.444241,4.297791],[103.444239,4.297276],[103.444024,4.296719]]]}},{"type":"Feature","properties":{"id":32},"geometry":{"type":"Polygon","coordinates":[[[103.444876,4.296718],[103.44445,4.296718],[103.444322,4.296847],[103.444326,4.297791],[103.44454,4.297919],[103.444923,4.297876],[103.444876,4.296718]]]}},{"type":"Feature","properties":{"id":33},"geometry":{"type":"Polygon","coordinates":[[[103.445388,4.296889],[103.44509,4.296932],[103.445008,4.29779],[103.445136,4.297918],[103.445435,4.297875],[103.445388,4.296889]]]}},{"type":"Feature","properties":{"id":34},"geometry":{"type":"Polygon","coordinates":[[[103.44641,4.296716],[103.445898,4.296717],[103.445686,4.296931],[103.445602,4.297189],[103.445648,4.297918],[103.4465,4.297917],[103.446627,4.297788],[103.446625,4.297188],[103.44641,4.296716]]]}},{"type":"Feature","properties":{"id":35},"geometry":{"type":"Polygon","coordinates":[[[103.442405,4.296892],[103.441979,4.296892],[103.441767,4.297107],[103.441769,4.29745],[103.442237,4.297493],[103.442408,4.297407],[103.442535,4.297278],[103.442534,4.297021],[103.442405,4.296892]]]}},{"type":"Feature","properties":{"id":36},"geometry":{"type":"Polygon","coordinates":[[[103.450159,4.296798],[103.449307,4.296799],[103.44918,4.296928],[103.449182,4.297357],[103.450162,4.297398],[103.450159,4.296798]]]}},{"type":"Feature","properties":{"id":37},"geometry":{"type":"Polygon","coordinates":[[[103.451182,4.296797],[103.45033,4.296884],[103.450289,4.29727],[103.450673,4.297398],[103.451184,4.297397],[103.451182,4.296797]]]}},{"type":"Feature","properties":{"id":38},"geometry":{"type":"Polygon","coordinates":[[[103.453994,4.29688],[103.453483,4.296966],[103.453442,4.297352],[103.454081,4.297308],[103.454122,4.297008],[103.453994,4.29688]]]}},{"type":"Feature","properties":{"id":39},"geometry":{"type":"Polygon","coordinates":[[[103.44095,4.295264],[103.440694,4.295264],[103.440397,4.295565],[103.440314,4.295994],[103.441127,4.296893],[103.441638,4.296893],[103.441935,4.296421],[103.441932,4.295735],[103.441717,4.295349],[103.441035,4.29535],[103.44095,4.295264]]]}},{"type":"Feature","properties":{"id":40},"geometry":{"type":"Polygon","coordinates":[[[103.451178,4.296025],[103.449219,4.296027],[103.449178,4.296499],[103.449306,4.296627],[103.451181,4.296625],[103.451178,4.296025]]]}},{"type":"Feature","properties":{"id":41},"geometry":{"type":"Polygon","coordinates":[[[103.442485,4.29552],[103.442016,4.295563],[103.442019,4.296249],[103.442147,4.296378],[103.442488,4.296377],[103.442616,4.296248],[103.442613,4.295648],[103.442485,4.29552]]]}},{"type":"Feature","properties":{"id":42},"geometry":{"type":"Polygon","coordinates":[[[103.443251,4.295433],[103.442783,4.295476],[103.442701,4.296248],[103.442914,4.296377],[103.443298,4.296334],[103.443251,4.295433]]]}},{"type":"Feature","properties":{"id":43},"geometry":{"type":"Polygon","coordinates":[[[103.446998,4.294743],[103.446529,4.294786],[103.446404,4.295344],[103.446233,4.295258],[103.445296,4.295345],[103.444443,4.29526],[103.444144,4.29496],[103.4441,4.294746],[103.443845,4.294746],[103.443639,4.296333],[103.447005,4.296372],[103.447043,4.295472],[103.447128,4.295386],[103.447126,4.294871],[103.446998,4.294743]]]}},{"type":"Feature","properties":{"id":44},"geometry":{"type":"Polygon","coordinates":[[[103.44802,4.294742],[103.447338,4.294742],[103.447211,4.294871],[103.447298,4.295214],[103.447213,4.2953],[103.447215,4.295815],[103.447301,4.2959],[103.447217,4.296244],[103.447345,4.296372],[103.448069,4.296328],[103.44802,4.294742]]]}},{"type":"Feature","properties":{"id":45},"geometry":{"type":"Polygon","coordinates":[[[103.448787,4.294741],[103.448148,4.294784],[103.448197,4.296371],[103.448794,4.296371],[103.448921,4.296242],[103.448835,4.295899],[103.448917,4.295298],[103.448787,4.294741]]]}},{"type":"Feature","properties":{"id":46},"geometry":{"type":"Polygon","coordinates":[[[103.449983,4.295426],[103.449301,4.295426],[103.44926,4.295812],[103.449389,4.295941],[103.45007,4.295854],[103.450111,4.295554],[103.449983,4.295426]]]}},{"type":"Feature","properties":{"id":47},"geometry":{"type":"Polygon","coordinates":[[[103.457133,4.293703],[103.456707,4.293703],[103.456325,4.293918],[103.456332,4.295633],[103.456461,4.295848],[103.456802,4.295847],[103.457268,4.295289],[103.457262,4.293831],[103.457133,4.293703]]]}},{"type":"Feature","properties":{"id":48},"geometry":{"type":"Polygon","coordinates":[[[103.450065,4.294654],[103.449383,4.294654],[103.449171,4.294869],[103.449172,4.295126],[103.4493,4.295255],[103.450152,4.295168],[103.450193,4.294782],[103.450065,4.294654]]]}},{"type":"Feature","properties":{"id":49},"geometry":{"type":"Polygon","coordinates":[[[103.451173,4.294652],[103.450321,4.294739],[103.450279,4.295039],[103.450834,4.295253],[103.451175,4.295253],[103.451173,4.294652]]]}},{"type":"Feature","properties":{"id":50},"geometry":{"type":"Polygon","coordinates":[[[103.440178,4.29415],[103.439752,4.29415],[103.439625,4.294279],[103.439626,4.294622],[103.43984,4.294836],[103.440564,4.294792],[103.440563,4.294535],[103.440178,4.29415]]]}},{"type":"Feature","properties":{"id":51},"geometry":{"type":"Polygon","coordinates":[[[103.440517,4.29372],[103.440219,4.293764],[103.440221,4.294192],[103.440778,4.294835],[103.441118,4.294835],[103.441159,4.294363],[103.440517,4.29372]]]}},{"type":"Feature","properties":{"id":52},"geometry":{"type":"Polygon","coordinates":[[[103.445115,4.292943],[103.444775,4.29303],[103.444689,4.292944],[103.444263,4.292944],[103.443625,4.293074],[103.44363,4.294275],[103.443844,4.29466],[103.444185,4.294574],[103.445123,4.294659],[103.445335,4.29453],[103.445331,4.293501],[103.445244,4.293072],[103.445115,4.292943]]]}},{"type":"Feature","properties":{"id":53},"geometry":{"type":"Polygon","coordinates":[[[103.442388,4.292946],[103.441409,4.29299],[103.441585,4.294277],[103.441799,4.294577],[103.442395,4.294576],[103.442523,4.294447],[103.442603,4.293246],[103.442388,4.292946]]]}},{"type":"Feature","properties":{"id":54},"geometry":{"type":"Polygon","coordinates":[[[103.446905,4.292941],[103.445627,4.292943],[103.445499,4.293072],[103.445418,4.294101],[103.445548,4.294573],[103.447039,4.294528],[103.44712,4.293413],[103.446905,4.292941]]]}},{"type":"Feature","properties":{"id":55},"geometry":{"type":"Polygon","coordinates":[[[103.448779,4.292939],[103.448353,4.29294],[103.448268,4.293026],[103.447331,4.292941],[103.447203,4.29307],[103.447209,4.294356],[103.447338,4.294571],[103.448829,4.294526],[103.448779,4.292939]]]}},{"type":"Feature","properties":{"id":56},"geometry":{"type":"Polygon","coordinates":[[[103.449635,4.293882],[103.449295,4.293882],[103.449167,4.294011],[103.449212,4.294483],[103.450107,4.294439],[103.450105,4.294096],[103.449635,4.293882]]]}},{"type":"Feature","properties":{"id":57},"geometry":{"type":"Polygon","coordinates":[[[103.441282,4.293291],[103.440856,4.293291],[103.440729,4.29342],[103.44073,4.293763],[103.441117,4.294406],[103.4415,4.294363],[103.441282,4.293291]]]}},{"type":"Feature","properties":{"id":58},"geometry":{"type":"Polygon","coordinates":[[[103.443241,4.293031],[103.442687,4.293075],[103.442736,4.294404],[103.443289,4.294361],[103.443371,4.293589],[103.443241,4.293031]]]}},{"type":"Feature","properties":{"id":59},"geometry":{"type":"Polygon","coordinates":[[[103.450145,4.293453],[103.449293,4.293454],[103.449251,4.293754],[103.450146,4.293796],[103.450145,4.293453]]]}},{"type":"Feature","properties":{"id":60},"geometry":{"type":"Polygon","coordinates":[[[103.451165,4.292937],[103.450398,4.292938],[103.450271,4.293067],[103.450274,4.293667],[103.450402,4.293795],[103.451169,4.293795],[103.451165,4.292937]]]}},{"type":"Feature","properties":{"id":61},"geometry":{"type":"Polygon","coordinates":[[[103.450058,4.292938],[103.449291,4.292939],[103.44925,4.293325],[103.450145,4.293367],[103.450186,4.293067],[103.450058,4.292938]]]}},{"type":"Feature","properties":{"id":62},"geometry":{"type":"Polygon","coordinates":[[[103.457377,4.290957],[103.456312,4.291001],[103.456229,4.291516],[103.456315,4.291602],[103.456365,4.293274],[103.457132,4.293359],[103.457344,4.293231],[103.45734,4.292115],[103.457508,4.291601],[103.457506,4.291172],[103.457377,4.290957]]]}},{"type":"Feature","properties":{"id":63},"geometry":{"type":"Polygon","coordinates":[[[103.455926,4.290444],[103.452859,4.290448],[103.452518,4.290534],[103.452391,4.290663],[103.452396,4.291778],[103.452951,4.292077],[103.453548,4.292077],[103.453887,4.291819],[103.454058,4.291819],[103.454314,4.292076],[103.455848,4.291988],[103.456059,4.291516],[103.455926,4.290444]]]}},{"type":"Feature","properties":{"id":64},"geometry":{"type":"Polygon","coordinates":[[[103.434589,4.282404],[103.434164,4.28249],[103.433481,4.282405],[103.433397,4.282491],[103.426878,4.282541],[103.426959,4.29159],[103.435481,4.291581],[103.435608,4.291452],[103.43552,4.290766],[103.435261,4.290166],[103.435084,4.288451],[103.434998,4.288365],[103.434995,4.287593],[103.434734,4.286307],[103.434718,4.282533],[103.434589,4.282404]]]}},{"type":"Feature","properties":{"id":65},"geometry":{"type":"Polygon","coordinates":[[[103.43897,4.290634],[103.438715,4.290634],[103.438587,4.290763],[103.43859,4.291449],[103.438719,4.291578],[103.438974,4.291578],[103.439101,4.291449],[103.439099,4.290763],[103.43897,4.290634]]]}},{"type":"Feature","properties":{"id":66},"geometry":{"type":"Polygon","coordinates":[[[103.440248,4.290547],[103.439865,4.29059],[103.439783,4.291448],[103.439911,4.291577],[103.440167,4.291576],[103.440379,4.291362],[103.440377,4.290847],[103.440248,4.290547]]]}},{"type":"Feature","properties":{"id":67},"geometry":{"type":"Polygon","coordinates":[[[103.441526,4.29046],[103.440588,4.290461],[103.440461,4.29059],[103.440465,4.291447],[103.440764,4.291576],[103.441531,4.291575],[103.441656,4.291017],[103.441654,4.290674],[103.441526,4.29046]]]}},{"type":"Feature","properties":{"id":68},"geometry":{"type":"Polygon","coordinates":[[[103.44306,4.290458],[103.442719,4.290458],[103.442507,4.290673],[103.442638,4.291574],[103.443107,4.29153],[103.44306,4.290458]]]}},{"type":"Feature","properties":{"id":69},"geometry":{"type":"Polygon","coordinates":[[[103.443571,4.290543],[103.443273,4.290587],[103.443192,4.291444],[103.44332,4.291573],[103.443576,4.291573],[103.443787,4.291272],[103.443785,4.290843],[103.443571,4.290543]]]}},{"type":"Feature","properties":{"id":70},"geometry":{"type":"Polygon","coordinates":[[[103.444168,4.290543],[103.443912,4.290543],[103.443785,4.290843],[103.443788,4.291358],[103.444002,4.291572],[103.444385,4.291529],[103.444382,4.290757],[103.444168,4.290543]]]}},{"type":"Feature","properties":{"id":71},"geometry":{"type":"Polygon","coordinates":[[[103.444935,4.290628],[103.444552,4.290671],[103.444469,4.291357],[103.444598,4.291572],[103.444939,4.291571],[103.445066,4.291357],[103.445064,4.290928],[103.444935,4.290628]]]}},{"type":"Feature","properties":{"id":72},"geometry":{"type":"Polygon","coordinates":[[[103.445616,4.290541],[103.445275,4.290541],[103.445148,4.29067],[103.445151,4.291442],[103.44528,4.291571],[103.445535,4.291571],[103.445663,4.291442],[103.445616,4.290541]]]}},{"type":"Feature","properties":{"id":73},"geometry":{"type":"Polygon","coordinates":[[[103.447406,4.290539],[103.447108,4.290582],[103.447026,4.29144],[103.447154,4.291569],[103.447495,4.291568],[103.447623,4.29144],[103.447621,4.291097],[103.447406,4.290539]]]}},{"type":"Feature","properties":{"id":74},"geometry":{"type":"Polygon","coordinates":[[[103.448173,4.290624],[103.447832,4.290625],[103.447705,4.290753],[103.447751,4.291568],[103.448177,4.291568],[103.448304,4.291439],[103.448173,4.290624]]]}},{"type":"Feature","properties":{"id":75},"geometry":{"type":"Polygon","coordinates":[[[103.451148,4.288905],[103.450637,4.288906],[103.450552,4.288992],[103.449188,4.288908],[103.448891,4.289208],[103.448815,4.291353],[103.448944,4.291567],[103.449626,4.291566],[103.449795,4.291394],[103.450136,4.291308],[103.450475,4.290879],[103.45107,4.290621],[103.451452,4.290235],[103.451448,4.289205],[103.451148,4.288905]]]}},{"type":"Feature","properties":{"id":76},"geometry":{"type":"Polygon","coordinates":[[[103.437776,4.290464],[103.437521,4.290464],[103.437394,4.290679],[103.437396,4.291279],[103.43761,4.291493],[103.438377,4.291492],[103.438505,4.291364],[103.438416,4.290592],[103.437776,4.290464]]]}},{"type":"Feature","properties":{"id":77},"geometry":{"type":"Polygon","coordinates":[[[103.439567,4.290719],[103.439269,4.290762],[103.439315,4.291491],[103.439698,4.291448],[103.439696,4.290933],[103.439567,4.290719]]]}},{"type":"Feature","properties":{"id":78},"geometry":{"type":"Polygon","coordinates":[[[103.446213,4.29054],[103.445957,4.290541],[103.44583,4.29067],[103.445876,4.291484],[103.446259,4.291441],[103.446342,4.290841],[103.446213,4.29054]]]}},{"type":"Feature","properties":{"id":79},"geometry":{"type":"Polygon","coordinates":[[[103.446724,4.29054],[103.446426,4.290583],[103.446429,4.291355],[103.446558,4.291484],[103.446813,4.291483],[103.446941,4.291355],[103.446939,4.290926],[103.446724,4.29054]]]}},{"type":"Feature","properties":{"id":80},"geometry":{"type":"Polygon","coordinates":[[[103.457459,4.2901],[103.456437,4.290186],[103.456309,4.290315],[103.456312,4.29083],[103.457547,4.290871],[103.457673,4.290314],[103.457459,4.2901]]]}},{"type":"Feature","properties":{"id":81},"geometry":{"type":"Polygon","coordinates":[[[103.438623,4.289262],[103.438027,4.289263],[103.437644,4.289477],[103.43756,4.289649],[103.437606,4.290378],[103.438117,4.290463],[103.438671,4.290334],[103.438623,4.289262]]]}},{"type":"Feature","properties":{"id":82},"geometry":{"type":"Polygon","coordinates":[[[103.445611,4.28934],[103.445228,4.289384],[103.445232,4.290327],[103.44536,4.290456],[103.445658,4.290412],[103.445611,4.28934]]]}},{"type":"Feature","properties":{"id":83},"geometry":{"type":"Polygon","coordinates":[[[103.4474,4.289253],[103.447102,4.289296],[103.44715,4.290454],[103.447405,4.290453],[103.447617,4.290067],[103.447529,4.289381],[103.4474,4.289253]]]}},{"type":"Feature","properties":{"id":84},"geometry":{"type":"Polygon","coordinates":[[[103.439476,4.289261],[103.439049,4.289261],[103.438922,4.28939],[103.438926,4.290162],[103.439054,4.290377],[103.439608,4.290333],[103.439691,4.289733],[103.439476,4.289261]]]}},{"type":"Feature","properties":{"id":85},"geometry":{"type":"Polygon","coordinates":[[[103.440754,4.28926],[103.439987,4.28926],[103.43986,4.289389],[103.439906,4.290376],[103.440844,4.290375],[103.440971,4.290246],[103.440969,4.289731],[103.440754,4.28926]]]}},{"type":"Feature","properties":{"id":86},"geometry":{"type":"Polygon","coordinates":[[[103.443055,4.289343],[103.442586,4.289386],[103.44259,4.290158],[103.442718,4.290373],[103.443102,4.290329],[103.443055,4.289343]]]}},{"type":"Feature","properties":{"id":87},"geometry":{"type":"Polygon","coordinates":[[[103.443652,4.289428],[103.443268,4.289471],[103.443315,4.290372],[103.44357,4.290372],[103.443698,4.290243],[103.443781,4.289728],[103.443652,4.289428]]]}},{"type":"Feature","properties":{"id":88},"geometry":{"type":"Polygon","coordinates":[[[103.444248,4.289342],[103.443864,4.289385],[103.443911,4.290371],[103.444295,4.290328],[103.444377,4.289728],[103.444248,4.289342]]]}},{"type":"Feature","properties":{"id":89},"geometry":{"type":"Polygon","coordinates":[[[103.444929,4.289341],[103.444546,4.289384],[103.444593,4.290371],[103.444976,4.290327],[103.444929,4.289341]]]}},{"type":"Feature","properties":{"id":90},"geometry":{"type":"Polygon","coordinates":[[[103.446719,4.289253],[103.445824,4.289297],[103.445871,4.290369],[103.446723,4.290368],[103.446851,4.29024],[103.446933,4.289639],[103.446719,4.289253]]]}},{"type":"Feature","properties":{"id":91},"geometry":{"type":"Polygon","coordinates":[[[103.448167,4.289338],[103.447699,4.289381],[103.447702,4.290153],[103.447831,4.290367],[103.448214,4.290324],[103.448297,4.289809],[103.448167,4.289338]]]}},{"type":"Feature","properties":{"id":92},"geometry":{"type":"Polygon","coordinates":[[[103.454385,4.288645],[103.453874,4.288731],[103.453577,4.289031],[103.453493,4.289289],[103.453068,4.289632],[103.4529,4.290062],[103.452944,4.290362],[103.454648,4.29036],[103.454733,4.290274],[103.455841,4.290359],[103.455968,4.29023],[103.456053,4.290058],[103.455966,4.289629],[103.456049,4.289115],[103.455749,4.288901],[103.454642,4.288902],[103.454385,4.288645]]]}},{"type":"Feature","properties":{"id":93},"geometry":{"type":"Polygon","coordinates":[[[103.437346,4.289349],[103.436877,4.289392],[103.436879,4.289907],[103.437094,4.290293],[103.43735,4.290293],[103.437477,4.290164],[103.437474,4.289478],[103.437346,4.289349]]]}},{"type":"Feature","properties":{"id":94},"geometry":{"type":"Polygon","coordinates":[[[103.442288,4.289344],[103.441436,4.289345],[103.441139,4.289645],[103.441141,4.29016],[103.442292,4.290202],[103.442288,4.289344]]]}},{"type":"Feature","properties":{"id":95},"geometry":{"type":"Polygon","coordinates":[[[103.457539,4.288899],[103.456431,4.2889],[103.456304,4.289029],[103.456308,4.289972],[103.457544,4.290014],[103.457756,4.289799],[103.457839,4.28937],[103.457838,4.289027],[103.457539,4.288899]]]}},{"type":"Feature","properties":{"id":96},"geometry":{"type":"Polygon","coordinates":[[[103.454545,4.286243],[103.453693,4.286244],[103.453608,4.28633],[103.452585,4.286245],[103.452373,4.286374],[103.452301,4.289548],[103.452431,4.289933],[103.452729,4.28989],[103.452897,4.289461],[103.453492,4.288946],[103.454,4.288345],[103.454,4.288173],[103.455017,4.286971],[103.4551,4.286457],[103.454545,4.286243]]]}},{"type":"Feature","properties":{"id":97},"geometry":{"type":"Polygon","coordinates":[[[103.440321,4.287716],[103.440065,4.287716],[103.439939,4.287931],[103.439943,4.288875],[103.440071,4.289003],[103.441093,4.288916],[103.441131,4.28793],[103.441003,4.287801],[103.440407,4.287802],[103.440321,4.287716]]]}},{"type":"Feature","properties":{"id":98},"geometry":{"type":"Polygon","coordinates":[[[103.444156,4.287712],[103.44373,4.287798],[103.443303,4.287713],[103.443176,4.287842],[103.443223,4.288914],[103.444161,4.288999],[103.444374,4.28887],[103.44437,4.287926],[103.444156,4.287712]]]}},{"type":"Feature","properties":{"id":99},"geometry":{"type":"Polygon","coordinates":[[[103.438532,4.287804],[103.438276,4.287804],[103.438149,4.287933],[103.438153,4.288791],[103.438281,4.288919],[103.438579,4.288876],[103.438532,4.287804]]]}},{"type":"Feature","properties":{"id":100},"geometry":{"type":"Polygon","coordinates":[[[103.439725,4.287803],[103.438873,4.287803],[103.438746,4.287932],[103.438749,4.28879],[103.438878,4.288919],[103.43973,4.288918],[103.439857,4.288789],[103.439853,4.287931],[103.439725,4.287803]]]}},{"type":"Feature","properties":{"id":101},"geometry":{"type":"Polygon","coordinates":[[[103.4416,4.287801],[103.441259,4.287801],[103.441131,4.28793],[103.441264,4.288916],[103.441647,4.288873],[103.4416,4.287801]]]}},{"type":"Feature","properties":{"id":102},"geometry":{"type":"Polygon","coordinates":[[[103.442196,4.2878],[103.441855,4.2878],[103.441728,4.287929],[103.44186,4.288915],[103.442116,4.288915],[103.442242,4.288615],[103.442196,4.2878]]]}},{"type":"Feature","properties":{"id":103},"geometry":{"type":"Polygon","coordinates":[[[103.442877,4.287713],[103.442622,4.287714],[103.442495,4.287928],[103.442499,4.288786],[103.442627,4.288915],[103.44301,4.288871],[103.443006,4.287842],[103.442877,4.287713]]]}},{"type":"Feature","properties":{"id":104},"geometry":{"type":"Polygon","coordinates":[[[103.445008,4.287711],[103.44454,4.28784],[103.444544,4.288784],[103.444672,4.288912],[103.445183,4.288912],[103.445311,4.288783],[103.445307,4.288011],[103.445008,4.287711]]]}},{"type":"Feature","properties":{"id":105},"geometry":{"type":"Polygon","coordinates":[[[103.446456,4.28771],[103.445605,4.287796],[103.445392,4.288011],[103.445395,4.288611],[103.445524,4.288911],[103.446504,4.288868],[103.446585,4.287838],[103.446456,4.28771]]]}},{"type":"Feature","properties":{"id":106},"geometry":{"type":"Polygon","coordinates":[[[103.437341,4.288148],[103.436872,4.288192],[103.436873,4.288363],[103.436703,4.288449],[103.436747,4.288835],[103.437173,4.288835],[103.437385,4.288706],[103.437469,4.288277],[103.437341,4.288148]]]}},{"type":"Feature","properties":{"id":107},"geometry":{"type":"Polygon","coordinates":[[[103.438021,4.287976],[103.437681,4.287976],[103.437469,4.288191],[103.43747,4.28862],[103.437684,4.288834],[103.438068,4.288791],[103.438021,4.287976]]]}},{"type":"Feature","properties":{"id":108},"geometry":{"type":"Polygon","coordinates":[[[103.450627,4.286504],[103.450115,4.286505],[103.449818,4.286634],[103.44982,4.28732],[103.449906,4.287406],[103.449825,4.288435],[103.45021,4.288649],[103.450806,4.288648],[103.450891,4.288563],[103.451317,4.288648],[103.451443,4.28809],[103.451438,4.286975],[103.450627,4.286504]]]}},{"type":"Feature","properties":{"id":109},"geometry":{"type":"Polygon","coordinates":[[[103.458039,4.286239],[103.457783,4.286239],[103.457656,4.286368],[103.457704,4.287612],[103.454977,4.287615],[103.454425,4.288001],[103.454427,4.28843],[103.454555,4.288559],[103.455066,4.288472],[103.455322,4.288644],[103.455834,4.288643],[103.455918,4.288557],[103.457964,4.288641],[103.458134,4.288469],[103.458475,4.28864],[103.458731,4.28864],[103.458858,4.288511],[103.45877,4.287739],[103.458513,4.287482],[103.458512,4.287225],[103.458341,4.287054],[103.458252,4.286367],[103.458039,4.286239]]]}},{"type":"Feature","properties":{"id":110},"geometry":{"type":"Polygon","coordinates":[[[103.437166,4.287291],[103.436613,4.28742],[103.436615,4.287849],[103.436743,4.287977],[103.437212,4.287934],[103.437166,4.287291]]]}},{"type":"Feature","properties":{"id":111},"geometry":{"type":"Polygon","coordinates":[[[103.438016,4.286775],[103.437633,4.286818],[103.43755,4.287419],[103.437679,4.287633],[103.438062,4.28759],[103.438016,4.286775]]]}},{"type":"Feature","properties":{"id":112},"geometry":{"type":"Polygon","coordinates":[[[103.438442,4.286689],[103.438144,4.286732],[103.438147,4.287504],[103.438276,4.287633],[103.438531,4.287632],[103.438658,4.287418],[103.438656,4.286817],[103.438442,4.286689]]]}},{"type":"Feature","properties":{"id":113},"geometry":{"type":"Polygon","coordinates":[[[103.439464,4.286516],[103.439123,4.286517],[103.439039,4.286774],[103.438741,4.286817],[103.438744,4.287503],[103.438872,4.287632],[103.439554,4.287631],[103.439851,4.287502],[103.439849,4.286816],[103.439464,4.286516]]]}},{"type":"Feature","properties":{"id":114},"geometry":{"type":"Polygon","coordinates":[[[103.440912,4.286429],[103.440571,4.286429],[103.440402,4.286773],[103.440317,4.286687],[103.440019,4.28673],[103.439936,4.287416],[103.440065,4.287631],[103.441002,4.28763],[103.44113,4.287501],[103.441126,4.286729],[103.440912,4.286429]]]}},{"type":"Feature","properties":{"id":115},"geometry":{"type":"Polygon","coordinates":[[[103.442191,4.286685],[103.441254,4.286772],[103.441215,4.287501],[103.441343,4.287629],[103.442195,4.287543],[103.442191,4.286685]]]}},{"type":"Feature","properties":{"id":116},"geometry":{"type":"Polygon","coordinates":[[[103.44415,4.286425],[103.443213,4.286426],[103.443044,4.28677],[103.442958,4.286684],[103.442533,4.28677],[103.442578,4.287499],[103.442707,4.287628],[103.443047,4.287542],[103.44407,4.287626],[103.444282,4.287412],[103.444278,4.286554],[103.44415,4.286425]]]}},{"type":"Feature","properties":{"id":117},"geometry":{"type":"Polygon","coordinates":[[[103.445343,4.286424],[103.444576,4.286425],[103.444364,4.28664],[103.444453,4.287412],[103.444666,4.287626],[103.44539,4.287496],[103.445472,4.286638],[103.445343,4.286424]]]}},{"type":"Feature","properties":{"id":118},"geometry":{"type":"Polygon","coordinates":[[[103.446451,4.286423],[103.445684,4.286424],[103.445557,4.286553],[103.445604,4.287625],[103.446115,4.287624],[103.446583,4.287409],[103.446579,4.286551],[103.446451,4.286423]]]}},{"type":"Feature","properties":{"id":119},"geometry":{"type":"Polygon","coordinates":[[[103.457442,4.28624],[103.455909,4.286413],[103.455825,4.286584],[103.45557,4.286671],[103.455188,4.287057],[103.45519,4.287486],[103.457448,4.287526],[103.457487,4.286797],[103.457572,4.286711],[103.457571,4.286368],[103.457442,4.28624]]]}},{"type":"Feature","properties":{"id":120},"geometry":{"type":"Polygon","coordinates":[[[103.437249,4.28669],[103.436909,4.286776],[103.436567,4.286691],[103.436527,4.287163],[103.437166,4.287205],[103.437421,4.287119],[103.437463,4.286819],[103.437249,4.28669]]]}},{"type":"Feature","properties":{"id":121},"geometry":{"type":"Polygon","coordinates":[[[103.466996,4.268559],[103.466698,4.268603],[103.466363,4.270061],[103.466193,4.270233],[103.46611,4.270662],[103.465898,4.270877],[103.452307,4.270934],[103.45236,4.283457],[103.452446,4.283543],[103.452365,4.284487],[103.452493,4.284615],[103.452664,4.284701],[103.456243,4.284697],[103.456838,4.284439],[103.457094,4.284439],[103.457348,4.284181],[103.457944,4.284095],[103.458539,4.283751],[103.45922,4.283579],[103.460921,4.282805],[103.461858,4.282547],[103.462368,4.282289],[103.464839,4.282372],[103.465307,4.282243],[103.465304,4.281385],[103.465045,4.280785],[103.465037,4.278898],[103.464951,4.27864],[103.465202,4.277611],[103.465282,4.27641],[103.465451,4.275981],[103.465531,4.27478],[103.466038,4.273664],[103.466289,4.272635],[103.466543,4.272291],[103.466626,4.271691],[103.466879,4.27109],[103.466876,4.27049],[103.467044,4.269975],[103.466996,4.268559]]]}},{"type":"Feature","properties":{"id":122},"geometry":{"type":"Polygon","coordinates":[[[103.44267,4.27905],[103.43662,4.279057],[103.4366,4.284418],[103.436899,4.284546],[103.442438,4.28454],[103.442523,4.284454],[103.442864,4.28454],[103.442991,4.284325],[103.442969,4.279179],[103.44267,4.27905]]]}},{"type":"Feature","properties":{"id":123},"geometry":{"type":"Polygon","coordinates":[[[103.449402,4.279043],[103.443437,4.279049],[103.443182,4.279135],[103.443161,4.284325],[103.443546,4.284539],[103.447124,4.284535],[103.447252,4.284406],[103.447249,4.28372],[103.447334,4.283634],[103.447247,4.283291],[103.447329,4.282519],[103.447243,4.282348],[103.44737,4.282219],[103.447753,4.282176],[103.447751,4.281575],[103.448048,4.28136],[103.449326,4.281359],[103.449538,4.281059],[103.44953,4.279172],[103.449402,4.279043]]]}},{"type":"Feature","properties":{"id":124},"geometry":{"type":"Polygon","coordinates":[[[103.449327,4.281531],[103.448049,4.281532],[103.447836,4.281661],[103.447839,4.282176],[103.447414,4.282433],[103.447422,4.28432],[103.447636,4.284535],[103.448999,4.284533],[103.44934,4.284447],[103.449552,4.284232],[103.449548,4.283375],[103.449462,4.283289],[103.449547,4.283203],[103.449543,4.282174],[103.449327,4.281531]]]}},{"type":"Feature","properties":{"id":125},"geometry":{"type":"Polygon","coordinates":[[[103.429961,4.276147],[103.429535,4.276234],[103.428086,4.276149],[103.427491,4.276493],[103.427407,4.276665],[103.426854,4.276794],[103.426877,4.28237],[103.434589,4.282404],[103.434716,4.282275],[103.434711,4.280903],[103.434496,4.280517],[103.43407,4.280518],[103.433476,4.281119],[103.432454,4.281206],[103.43207,4.281077],[103.43164,4.280306],[103.431467,4.279534],[103.431635,4.279105],[103.431542,4.277218],[103.431328,4.277004],[103.431072,4.277004],[103.430558,4.276233],[103.430047,4.276233],[103.429961,4.276147]]]}},{"type":"Feature","properties":{"id":126},"geometry":{"type":"Polygon","coordinates":[[[103.438371,4.270134],[103.436838,4.270136],[103.436753,4.270222],[103.4359,4.270137],[103.435688,4.270351],[103.435864,4.271638],[103.436121,4.271981],[103.436126,4.27301],[103.436382,4.273267],[103.436389,4.274811],[103.436561,4.275325],[103.436572,4.277813],[103.436871,4.278027],[103.438065,4.278112],[103.438192,4.277983],[103.438105,4.277554],[103.438189,4.277382],[103.438179,4.274981],[103.438093,4.274895],[103.438092,4.274466],[103.438176,4.27438],[103.438173,4.273522],[103.4383,4.273394],[103.447119,4.273341],[103.447117,4.272912],[103.446946,4.272655],[103.446937,4.270682],[103.446809,4.270554],[103.445531,4.270555],[103.445019,4.270384],[103.441525,4.270388],[103.44144,4.270302],[103.440247,4.270304],[103.440161,4.270218],[103.439224,4.270305],[103.438371,4.270134]]]}},{"type":"Feature","properties":{"id":127},"geometry":{"type":"Polygon","coordinates":[[[103.438982,4.273479],[103.438258,4.273608],[103.438277,4.277983],[103.438405,4.278111],[103.449227,4.2781],[103.449525,4.277885],[103.449523,4.277456],[103.44918,4.277028],[103.449179,4.27677],[103.44875,4.27617],[103.448663,4.275741],[103.448321,4.275313],[103.447633,4.274027],[103.447633,4.273855],[103.447333,4.273556],[103.439068,4.273564],[103.438982,4.273479]]]}},{"type":"Feature","properties":{"id":128},"geometry":{"type":"Polygon","coordinates":[[[103.456408,4.26351],[103.456152,4.26351],[103.455813,4.263854],[103.455558,4.26394],[103.455134,4.264455],[103.454242,4.265185],[103.454244,4.265528],[103.454414,4.265614],[103.454416,4.265957],[103.454289,4.266086],[103.454203,4.266],[103.453266,4.266087],[103.452205,4.266988],[103.452125,4.268361],[103.452211,4.268447],[103.452219,4.270334],[103.452347,4.270462],[103.465555,4.270448],[103.465853,4.270319],[103.466275,4.269289],[103.466357,4.268689],[103.466695,4.268002],[103.466863,4.267316],[103.466817,4.266673],[103.46605,4.266673],[103.465965,4.266588],[103.465624,4.266674],[103.456507,4.266684],[103.456461,4.26604],[103.456204,4.265697],[103.45646,4.265611],[103.456408,4.26351]]]}},{"type":"Feature","properties":{"id":129},"geometry":{"type":"Polygon","coordinates":[[[103.461935,4.260845],[103.46168,4.260845],[103.46151,4.261103],[103.460828,4.261018],[103.460744,4.261189],[103.459891,4.261104],[103.459637,4.261362],[103.4587,4.261535],[103.457554,4.262522],[103.457642,4.263123],[103.457899,4.263465],[103.457858,4.263766],[103.457262,4.263852],[103.456834,4.263424],[103.456536,4.263467],[103.456544,4.265526],[103.456886,4.265697],[103.456802,4.26604],[103.456632,4.266126],[103.456676,4.266512],[103.466944,4.266458],[103.467029,4.266286],[103.467012,4.262426],[103.467096,4.261997],[103.466711,4.261783],[103.465859,4.261699],[103.465346,4.261442],[103.464494,4.261443],[103.464067,4.261186],[103.462107,4.261102],[103.461935,4.260845]]]}},{"type":"Feature","properties":{"id":130},"geometry":{"type":"Polygon","coordinates":[[[103.460041,4.256129],[103.459615,4.25613],[103.459488,4.25643],[103.459492,4.257374],[103.459159,4.259175],[103.459161,4.259604],[103.459289,4.259733],[103.460569,4.260074],[103.461933,4.260245],[103.462189,4.260416],[103.463042,4.260501],[103.463468,4.260672],[103.464321,4.260671],[103.464406,4.260757],[103.465599,4.26067],[103.465856,4.261098],[103.466112,4.261098],[103.466283,4.261269],[103.46705,4.261354],[103.467307,4.261525],[103.468457,4.261567],[103.468456,4.26131],[103.467986,4.260924],[103.46773,4.260839],[103.467389,4.260925],[103.465426,4.260155],[103.464658,4.259984],[103.463548,4.259299],[103.463377,4.259299],[103.463035,4.258957],[103.462694,4.258871],[103.462351,4.258357],[103.461498,4.258186],[103.461113,4.257801],[103.460683,4.256858],[103.460041,4.256129]]]}},{"type":"Feature","properties":{"id":131},"geometry":{"type":"Polygon","coordinates":[[[103.466861,4.25698],[103.466265,4.25698],[103.465925,4.257324],[103.465158,4.257325],[103.464902,4.257068],[103.464646,4.257068],[103.464392,4.257411],[103.463795,4.257412],[103.463668,4.257627],[103.463588,4.258656],[103.463802,4.25887],[103.464484,4.259127],[103.464826,4.259384],[103.465253,4.259469],[103.465936,4.259811],[103.466448,4.259897],[103.467301,4.260325],[103.468242,4.261181],[103.468754,4.261267],[103.469221,4.26088],[103.469474,4.260194],[103.470151,4.259164],[103.470404,4.258563],[103.470402,4.258048],[103.470103,4.257834],[103.469762,4.257834],[103.469548,4.25762],[103.469547,4.257363],[103.469248,4.257149],[103.466947,4.257065],[103.466861,4.25698]]]}},{"type":"Feature","properties":{"id":132},"geometry":{"type":"Polygon","coordinates":[[[103.460632,4.254842],[103.460376,4.254842],[103.460164,4.255057],[103.460165,4.2554],[103.460509,4.256086],[103.460937,4.256429],[103.461066,4.256729],[103.461322,4.256814],[103.461921,4.257414],[103.462519,4.257756],[103.462562,4.257971],[103.462776,4.258185],[103.463202,4.258185],[103.463329,4.25797],[103.463325,4.257112],[103.463154,4.256855],[103.462256,4.256213],[103.461058,4.254927],[103.460632,4.254842]]]}},{"type":"Feature","properties":{"id":133},"geometry":{"type":"Polygon","coordinates":[[[103.470779,4.256632],[103.470439,4.256633],[103.470184,4.25689],[103.469716,4.256934],[103.469718,4.257448],[103.470017,4.257577],[103.470359,4.25792],[103.470614,4.257919],[103.470996,4.257447],[103.470994,4.256932],[103.470779,4.256632]]]}},{"type":"Feature","properties":{"id":134},"geometry":{"type":"Polygon","coordinates":[[[103.469731,4.250543],[103.468879,4.250544],[103.46884,4.251445],[103.469012,4.251874],[103.469014,4.252388],[103.469186,4.252731],[103.469274,4.253417],[103.469533,4.254018],[103.469535,4.254618],[103.469879,4.25539],[103.469882,4.255904],[103.47001,4.256119],[103.470607,4.256204],[103.470862,4.256118],[103.471074,4.255817],[103.470895,4.253673],[103.470636,4.252901],[103.470633,4.252215],[103.470375,4.251787],[103.470115,4.250757],[103.469731,4.250543]]]}},{"type":"Feature","properties":{"id":135},"geometry":{"type":"Polygon","coordinates":[[[103.458892,4.246524],[103.458381,4.246524],[103.458253,4.246653],[103.458259,4.24794],[103.458344,4.248025],[103.458435,4.249312],[103.458521,4.249397],[103.458445,4.251542],[103.458616,4.251713],[103.45879,4.252657],[103.459004,4.252785],[103.459345,4.252785],[103.459473,4.252913],[103.459474,4.253085],[103.459304,4.253257],[103.459306,4.253771],[103.459649,4.2542],[103.459822,4.254886],[103.460206,4.254928],[103.460588,4.254628],[103.460586,4.254199],[103.460413,4.253598],[103.460156,4.253256],[103.460068,4.252484],[103.459896,4.252312],[103.459797,4.249053],[103.459625,4.248624],[103.459623,4.248024],[103.459451,4.247767],[103.459361,4.246738],[103.458892,4.246524]]]}},{"type":"Feature","properties":{"id":136},"geometry":{"type":"Polygon","coordinates":[[[103.459057,4.245237],[103.457907,4.245281],[103.457995,4.246053],[103.458295,4.246438],[103.458806,4.246438],[103.459189,4.246223],[103.459186,4.245537],[103.459057,4.245237]]]}},{"type":"Feature","properties":{"id":137},"geometry":{"type":"Polygon","coordinates":[[[103.458182,4.239834],[103.457585,4.239834],[103.457373,4.240049],[103.45746,4.240478],[103.457377,4.240907],[103.457382,4.242108],[103.457467,4.242193],[103.457383,4.242365],[103.457387,4.243394],[103.457473,4.24348],[103.457392,4.244509],[103.457479,4.244938],[103.457693,4.245152],[103.458289,4.245152],[103.458587,4.245023],[103.458568,4.240648],[103.458738,4.240476],[103.458736,4.240048],[103.458182,4.239834]]]}},{"type":"Feature","properties":{"id":138},"geometry":{"type":"Polygon","coordinates":[[[103.459043,4.242063],[103.458745,4.242106],[103.458796,4.244036],[103.459094,4.243993],[103.459043,4.242063]]]}},{"type":"Feature","properties":{"id":139},"geometry":{"type":"Polygon","coordinates":[[[103.459037,4.240691],[103.458739,4.240734],[103.458786,4.24172],[103.459084,4.241677],[103.459037,4.240691]]]}}]}