{"type":"FeatureCollection","features":[{"type":"Feature","properties":{"name":"Sempadan Kawasan Industri Teluk Kalong"},"geometry":{"type":"Polygon","coordinates":[[[103.43539,4.270266],[103.435491,4.274126],[103.435517,4.28013],[103.435542,4.286134],[103.436068,4.289565],[103.436765,4.292995],[103.43805,4.294709],[103.44019,4.296851],[103.442331,4.299422],[103.44447,4.301565],[103.446611,4.303964],[103.44831,4.302847],[103.449585,4.301988],[103.450861,4.301558],[103.452995,4.302413],[103.455133,4.304126],[103.457435,4.304467],[103.456996,4.301551],[103.456467,4.297263],[103.457473,4.293402],[103.458055,4.28997],[103.458901,4.288511],[103.458638,4.286796],[103.458972,4.285252],[103.461011,4.283963],[103.463735,4.283102],[103.465866,4.283271],[103.465426,4.280098],[103.465663,4.275809],[103.466925,4.271948],[103.467505,4.268087],[103.468172,4.264655],[103.469434,4.260794],[103.470701,4.258219],[103.4718,4.256074],[103.47152,4.250499],[103.470068,4.249642],[103.468365,4.250073],[103.468547,4.252646],[103.46958,4.255218],[103.469417,4.256934],[103.466862,4.257108],[103.463452,4.256769],[103.461742,4.255398],[103.460713,4.253941],[103.460182,4.249224],[103.459737,4.244936],[103.459545,4.239789],[103.458266,4.239619],[103.457243,4.23962],[103.457262,4.244081],[103.457622,4.248369],[103.457886,4.250513],[103.456603,4.249228],[103.455318,4.247685],[103.454469,4.248372],[103.453205,4.251805],[103.451086,4.25438],[103.449386,4.255412],[103.447433,4.256958],[103.445987,4.257645],[103.444887,4.259362],[103.446001,4.260819],[103.448562,4.262103],[103.449836,4.261072],[103.450685,4.260214],[103.45409,4.259352],[103.456647,4.259693],[103.458525,4.260377],[103.458192,4.26235],[103.456831,4.26278],[103.454533,4.263383],[103.452408,4.264672],[103.451734,4.266388],[103.45175,4.270248],[103.446467,4.270254],[103.440502,4.27026],[103.43539,4.270266]]]}}]}